GLOBALSTAR M057 [-]     
1 25943U 99058A   24092.45313079 -.00000067  00000+0  23662-3 0  9998
2 25943  51.9971 161.7949 0002814 175.1580 184.9297 12.24782864112802
GLOBALSTAR M059 [-]     
1 25944U 99058B   24092.86920071 -.00000114  00000+0 -34307-3 0  9992
2 25944  52.0035 321.0605 0000931 107.9806 336.6230 11.99961567109818
GLOBALSTAR M056 [-]     
1 25945U 99058C   24092.41081903 -.00000049  00000+0  44723-3 0  9995
2 25945  51.9990 335.6074 0001556  38.2657 132.7398 12.04772753109377
GLOBALSTAR M031 [-]     
1 25946U 99058D   24093.20059890  .00000040  00000+0  13284-2 0  9991
2 25946  51.9948 252.1649 0001502  36.3391 133.3823 12.16005269111138
GLOBALSTAR M039 [-]     
1 25961U 99062A   24093.20387551 -.00000059  00000+0  25113-3 0  9997
2 25961  51.9835 171.8213 0003185  96.3284 263.7945 12.62286044124556
GLOBALSTAR M034 [-]     
1 25962U 99062B   24092.99554233 -.00000071  00000+0  15440-3 0  9992
2 25962  51.9862  78.2049 0013973 288.4819 104.7956 11.79426134 86318
GLOBALSTAR M029 [-]     
1 25963U 99062C   24092.58169236 -.00000069  00000+0  21203-3 0  9994
2 25963  51.9792 210.2516 0001964 339.2222  33.4377 11.99875829116116
GLOBALSTAR M061 [-]     
1 25964U 99062D   24092.88115179 -.00000046  00000+0  56188-3 0  9990
2 25964  51.9778 256.6933 0005835 207.5619 324.6585 11.76759244 69510
